{
    "links": {
        "self": "http://www.neowsapp.com/rest/v1/neo/3177233?api_key=iIulBulltgU6a56xZRHN4H3l9WmuAYTsLGpBGhQ2"
    },
    "id": "3177233",
    "neo_reference_id": "3177233",
    "name": "(2004 FH29)",
    "designation": "2004 FH29",
    "nasa_jpl_url": "http://ssd.jpl.nasa.gov/sbdb.cgi?sstr=3177233",
    "absolute_magnitude_h": 24.0,
    "estimated_diameter": {
        "kilometers": {
            "estimated_diameter_min": 0.0421264611,
            "estimated_diameter_max": 0.0941976306
        },
        "meters": {
            "estimated_diameter_min": 42.1264610556,
            "estimated_diameter_max": 94.1976305719
        },
        "miles": {
            "estimated_diameter_min": 0.0261761612,
            "estimated_diameter_max": 0.0585316759
        },
        "feet": {
            "estimated_diameter_min": 138.2101784897,
            "estimated_diameter_max": 309.0473542854
        }
    },
    "is_potentially_hazardous_asteroid": false,
    "close_approach_data": [
        {
            "close_approach_date": "1910-07-03",
            "close_approach_date_full": "1910-Jul-03 07:03",
            "epoch_date_close_approach": -1877619420000,
            "relative_velocity": {
                "kilometers_per_second": "19.5020470267",
                "kilometers_per_hour": "70207.3692959468",
                "miles_per_hour": "43624.1289939176"
            },
            "miss_distance": {
                "astronomical": "0.4903214733",
                "lunar": "190.7350531137",
                "kilometers": "73351048.020941871",
                "miles": "45578227.7497089798"
            },
            "orbiting_body": "Earth"
        },
        {
            "close_approach_date": "1925-04-11",
            "close_approach_date_full": "1925-Apr-11 06:12",
            "epoch_date_close_approach": -1411408080000,
            "relative_velocity": {
                "kilometers_per_second": "9.3035716892",
                "kilometers_per_hour": "33492.8580810948",
                "miles_per_hour": "20811.1595115558"
            },
            "miss_distance": {
                "astronomical": "0.0320048749",
                "lunar": "12.4498963361",
                "kilometers": "4787861.114656463",
                "miles": "2975038.9422586694"
            },
            "orbiting_body": "Earth"
        },
        {
            "close_approach_date": "2004-04-05",
            "close_approach_date_full": "2004-Apr-05 09:33",
            "epoch_date_close_approach": 1081157580000,
            "relative_velocity": {
                "kilometers_per_second": "9.9272994224",
                "kilometers_per_hour": "35738.2779206493",
                "miles_per_hour": "22206.3760779724"
            },
            "miss_distance": {
                "astronomical": "0.0205633425",
                "lunar": "7.9991402325",
                "kilometers": "3076232.238080475",
                "miles": "1911482.076141555"
            },
            "orbiting_body": "Earth"
        },
        {
            "close_approach_date": "2183-03-06",
            "close_approach_date_full": "2183-Mar-06 05:25",
            "epoch_date_close_approach": 6727209900000,
            "relative_velocity": {
                "kilometers_per_second": "21.950917023",
                "kilometers_per_hour": "79023.3012829627",
                "miles_per_hour": "49102.0062888498"
            },
            "miss_distance": {
                "astronomical": "0.4849239157",
                "lunar": "188.6354032073",
                "kilometers": "72543584.900779559",
                "miles": "45076493.4325695542"
            },
            "orbiting_body": "Earth"
        },
        {
            "close_approach_date": "2185-06-10",
            "close_approach_date_full": "2185-Jun-10 15:40",
            "epoch_date_close_approach": 6798699600000,
            "relative_velocity": {
                "kilometers_per_second": "11.4090207679",
                "kilometers_per_hour": "41072.4747644544",
                "miles_per_hour": "25520.8385557245"
            },
            "miss_distance": {
                "astronomical": "0.2554696394",
                "lunar": "99.3776897266",
                "kilometers": "38217713.903908078",
                "miles": "23747386.2389563564"
            },
            "orbiting_body": "Earth"
        }
    ],
    "orbital_data": {
        "orbit_id": "15",
        "orbit_determination_date": "2017-04-06 09:12:59",
        "first_observation_date": "2004-03-29",
        "last_observation_date": "2004-04-09",
        "data_arc_in_days": 11,
        "observations_used": 58,
        "orbit_uncertainty": "7",
        "minimum_orbit_intersection": ".0157196",
        "jupiter_tisserand_invariant": "4.152",
        "epoch_osculation": "2459000.5",
        "eccentricity": ".4017451534262561",
        "semi_major_axis": "1.654841315996903",
        "inclination": "12.62726996861268",
        "ascending_node_longitude": "195.3421506936384",
        "orbital_period": "777.5582967843304",
        "perihelion_distance": ".9900168376056194",
        "perihelion_argument": "25.89893891084498",
        "aphelion_distance": "2.319665794388186",
        "perihelion_time": "2459343.156271661161",
        "mean_anomaly": "201.3543289189121",
        "mean_motion": ".462987793312496",
        "equinox": "J2000",
        "orbit_class": {
            "orbit_class_type": "APO",
            "orbit_class_description": "Near-Earth asteroid orbits which cross the Earth’s orbit similar to that of 1862 Apollo",
            "orbit_class_range": "a (semi-major axis) > 1.0 AU; q (perihelion) < 1.017 AU"
        }
    },
    "is_sentry_object": false
}